{
  "type": "FeatureCollection",
  "features": [
    {
      "type": "Feature",
      "properties": {
        "norad_id": 54741,
        "name": "GALAXY 35 (G-35)",
        "group": "intelsat",
        "lat": 0.013559953816884723,
        "lon": 127.09470921880853,
        "alt_km": 35794.50327080959,
        "timestamp": "2025-12-07T09:35:09.460166+00:00",
        "meta_object_name": "GALAXY 35 (G-35)",
        "meta_object_id": "2022-170A",
        "meta_epoch": "2025-12-06T21:47:02.534208",
        "meta_mean_motion": 1.00271204,
        "meta_eccentricity": 0.00027083,
        "meta_inclination": 0.0144,
        "meta_ra_of_asc_node": 68.8459,
        "meta_arg_of_pericenter": 194.1811,
        "meta_mean_anomaly": 46.5851,
        "meta_ephemeris_type": 0,
        "meta_classification_type": "U",
        "meta_norad_cat_id": 54741,
        "meta_element_set_no": 999,
        "meta_rev_at_epoch": 1096,
        "meta_bstar": 0,
        "meta_mean_motion_dot": -1.57e-06,
        "meta_mean_motion_ddot": 0,
        "tle_line1": "1 54741U 22170A   25340.90766822 -.00000157  00000+0  00000+0 0  9999",
        "tle_line2": "2 54741   0.0144  68.8459 0002708 194.1811  46.5851  1.00271204 10966"
      },
      "geometry": {
        "type": "Point",
        "coordinates": [
          127.09470921880853,
          0.013559953816884723
        ]
      }
    },
    {
      "type": "Feature",
      "properties": {
        "norad_id": 54742,
        "name": "GALAXY 36 (G-36)",
        "group": "intelsat",
        "lat": 0.017589033168861037,
        "lon": 131.18759067405256,
        "alt_km": 35788.83049692424,
        "timestamp": "2025-12-07T09:35:09.460179+00:00",
        "meta_object_name": "GALAXY 36 (G-36)",
        "meta_object_id": "2022-170B",
        "meta_epoch": "2025-12-06T21:48:09.926208",
        "meta_mean_motion": 1.00269423,
        "meta_eccentricity": 6.185e-05,
        "meta_inclination": 0.0117,
        "meta_ra_of_asc_node": 341.9552,
        "meta_arg_of_pericenter": 291.2611,
        "meta_mean_anomaly": 40.7562,
        "meta_ephemeris_type": 0,
        "meta_classification_type": "U",
        "meta_norad_cat_id": 54742,
        "meta_element_set_no": 999,
        "meta_rev_at_epoch": 1084,
        "meta_bstar": 0,
        "meta_mean_motion_dot": 0,
        "meta_mean_motion_ddot": 0,
        "tle_line1": "1 54742U 22170B   25340.90844822  .00000000  00000+0  00000+0 0  9993",
        "tle_line2": "2 54742   0.0117 341.9552 0000618 291.2611  40.7562  1.00269423 10843"
      },
      "geometry": {
        "type": "Point",
        "coordinates": [
          131.18759067405256,
          0.017589033168861037
        ]
      }
    },
    {
      "type": "Feature",
      "properties": {
        "norad_id": 57493,
        "name": "GALAXY 37 (G-37)",
        "group": "intelsat",
        "lat": 0.03375092631351694,
        "lon": 93.20074248136422,
        "alt_km": 35796.28571754886,
        "timestamp": "2025-12-07T09:35:09.460191+00:00",
        "meta_object_name": "GALAXY 37 (G-37)",
        "meta_object_id": "2023-112A",
        "meta_epoch": "2025-12-06T21:37:10.979328",
        "meta_mean_motion": 1.00270596,
        "meta_eccentricity": 0.00024005,
        "meta_inclination": 0.0123,
        "meta_ra_of_asc_node": 341.544,
        "meta_arg_of_pericenter": 278.6945,
        "meta_mean_anomaly": 12.9936,
        "meta_ephemeris_type": 0,
        "meta_classification_type": "U",
        "meta_norad_cat_id": 57493,
        "meta_element_set_no": 999,
        "meta_rev_at_epoch": 861,
        "meta_bstar": 0,
        "meta_mean_motion_dot": 5.4e-07,
        "meta_mean_motion_ddot": 0,
        "tle_line1": "1 57493U 23112A   25340.90082152  .00000054  00000+0  00000+0 0  9995",
        "tle_line2": "2 57493   0.0123 341.5440 0002400 278.6945  12.9936  1.00270596  8619"
      },
      "geometry": {
        "type": "Point",
        "coordinates": [
          93.20074248136422,
          0.03375092631351694
        ]
      }
    }
  ]
}